{"type": "FeatureCollection", "features": [{"type": "Feature", "properties": {"stroke_width": 3}, "geometry": {"type": "LineString", "coordinates": [[75.353488, 19.875314], [75.353386, 19.877696], [75.353893, 19.883031], [75.354322, 19.883261], [75.354812, 19.883953], [75.354751, 19.884645], [75.354444, 19.885971], [75.354041, 19.895558], [75.353364, 19.895685], [75.352281, 19.895176], [75.351401, 19.894985], [75.349709, 19.89473], [75.347746, 19.893788], [75.347272, 19.892706], [75.345918, 19.892133], [75.34382, 19.891624], [75.341383, 19.891178], [75.340977, 19.891815], [75.340706, 19.893152], [75.341108, 19.893781], [75.342394, 19.894735], [75.343207, 19.895054], [75.34341, 19.895817], [75.343613, 19.896836], [75.343274, 19.898109], [75.34395, 19.899507], [75.344221, 19.900716], [75.344153, 19.901735], [75.342935, 19.901289], [75.339909, 19.900244], [75.341075, 19.903073], [75.342733, 19.905555], [75.345802, 19.909422], [75.347459, 19.911096], [75.349424, 19.912827], [75.352248, 19.914616], [75.352555, 19.914104], [75.352923, 19.911449], [75.353475, 19.909429], [75.354396, 19.90839], [75.35526, 19.907298], [75.35391, 19.906432], [75.35391, 19.905855], [75.353357, 19.905335], [75.352743, 19.905624], [75.351884, 19.904989], [75.352559, 19.904181], [75.353357, 19.902622], [75.353541, 19.90066], [75.354094, 19.897081], [75.355322, 19.896619], [75.356181, 19.897023], [75.356242, 19.89737], [75.357286, 19.897427], [75.358698, 19.898178], [75.361092, 19.899505], [75.364316, 19.895935], [75.365114, 19.894665], [75.365605, 19.893337], [75.365359, 19.890624], [75.365421, 19.887334], [75.365298, 19.884967], [75.366833, 19.884967], [75.36935, 19.884967], [75.372542, 19.884967], [75.372051, 19.882485], [75.371398, 19.879002], [75.370247, 19.873667], [75.373371, 19.873126], [75.377071, 19.87243], [75.383485, 19.87212], [75.390227, 19.87096], [75.399192, 19.869979], [75.403468, 19.869747], [75.408319, 19.868355], [75.410606, 19.867614], [75.410503, 19.866618], [75.410968, 19.866424], [75.411949, 19.865914], [75.412207, 19.865113], [75.412517, 19.864506], [75.411226, 19.864749], [75.410374, 19.864797], [75.407494, 19.86485], [75.397443, 19.865275], [75.394394, 19.865169], [75.392418, 19.865435], [75.38632, 19.865169], [75.381068, 19.864585], [75.378019, 19.864585], [75.37497, 19.864638], [75.373953, 19.864319], [75.373389, 19.863363], [75.373276, 19.861611], [75.373163, 19.861274], [75.370566, 19.860584], [75.367912, 19.859628], [75.364128, 19.857981], [75.360394, 19.856261], [75.359583, 19.855625], [75.359583, 19.858802], [75.35553, 19.858675], [75.355665, 19.861471], [75.353369, 19.861852], [75.349113, 19.864393], [75.349856, 19.866299], [75.353233, 19.864647], [75.354179, 19.866426], [75.355395, 19.866108], [75.354652, 19.866871], [75.35553, 19.868459], [75.356341, 19.868459], [75.357354, 19.874812], [75.353487, 19.875315]]}}]}