{"type": "FeatureCollection", "features": [{"type": "Feature", "properties": {}, "geometry": {"type": "LineString", "coordinates": [[75.333932, 19.850417], [75.33364, 19.84783], [75.33045, 19.846775], [75.329441, 19.846386], [75.328711, 19.846077], [75.32762, 19.845695], [75.327653, 19.844655], [75.326146, 19.84434], [75.324739, 19.844119], [75.324203, 19.844497], [75.322562, 19.845001], [75.320921, 19.845096], [75.320431, 19.845027], [75.320465, 19.844712], [75.320465, 19.844334], [75.319896, 19.844082], [75.319159, 19.844303], [75.31802, 19.844964], [75.317116, 19.845469], [75.316915, 19.846193], [75.316345, 19.84739], [75.315575, 19.848304], [75.314704, 19.849281], [75.3139, 19.850005], [75.313833, 19.850226], [75.313934, 19.851045], [75.314637, 19.852651], [75.320733, 19.851801], [75.323479, 19.851423], [75.326862, 19.851171], [75.329709, 19.850824], [75.333896, 19.850415]]}}]}