{"type": "FeatureCollection", "features": [{"type": "Feature", "properties": {"stroke_width": 3}, "geometry": {"type": "LineString", "coordinates": [[75.317953, 19.894244], [75.316916, 19.893378], [75.316494, 19.892114], [75.316071, 19.89085], [75.315803, 19.889912], [75.315495, 19.888756], [75.315035, 19.887781], [75.314497, 19.88677], [75.314305, 19.886156], [75.316001, 19.885938], [75.316692, 19.885865], [75.317575, 19.885757], [75.31819, 19.885577], [75.318651, 19.885757], [75.319265, 19.886299], [75.320302, 19.887418], [75.321146, 19.888646], [75.32226, 19.888754], [75.322298, 19.887086], [75.322337, 19.885786], [75.322298, 19.884558], [75.323527, 19.884197], [75.324641, 19.884125], [75.325793, 19.884775], [75.32706, 19.884775], [75.327213, 19.885497], [75.327828, 19.885569], [75.327981, 19.886039], [75.32825, 19.886725], [75.328596, 19.887158], [75.328673, 19.888422], [75.330324, 19.888386], [75.330439, 19.889289], [75.333895, 19.889216], [75.336429, 19.888964], [75.336736, 19.890083], [75.337044, 19.891238], [75.337044, 19.891238], [75.336967, 19.892466], [75.337044, 19.893333], [75.337005, 19.894163], [75.335392, 19.894163], [75.334356, 19.894019], [75.332282, 19.893405], [75.331015, 19.893044], [75.329594, 19.893296], [75.328519, 19.892538], [75.327713, 19.892249], [75.326599, 19.892249], [75.324756, 19.891852], [75.323681, 19.891708], [75.323335, 19.892069], [75.322682, 19.892285], [75.321991, 19.892358], [75.320916, 19.892791], [75.320225, 19.893224], [75.319457, 19.89373], [75.317921, 19.894199], [75.317921, 19.894235]]}}]}